<?xml version="1.0" encoding="UTF-8"?>
<ndm xmlns:xsi="http://www.w3.org/2001/XMLSchema-instance" xsi:noNamespaceSchemaLocation="https://sanaregistry.org/r/ndmxml_unqualified/ndmxml-2.0.0-master-2.0.xsd">
<omm id="CCSDS_OMM_VERS" version="2.0">
<header><CREATION_DATE/><ORIGINATOR/></header><body><segment><metadata><OBJECT_NAME>ONEWEB-0687</OBJECT_NAME><OBJECT_ID>2024-188B</OBJECT_ID><CENTER_NAME>EARTH</CENTER_NAME><REF_FRAME>TEME</REF_FRAME><TIME_SYSTEM>UTC</TIME_SYSTEM><MEAN_ELEMENT_THEORY>SGP4</MEAN_ELEMENT_THEORY></metadata><data><meanElements><EPOCH>2024-10-26T22:00:01.999584</EPOCH><MEAN_MOTION>14.91431705</MEAN_MOTION><ECCENTRICITY>.000377</ECCENTRICITY><INCLINATION>86.5104</INCLINATION><RA_OF_ASC_NODE>167.7175</RA_OF_ASC_NODE><ARG_OF_PERICENTER>170.6454</ARG_OF_PERICENTER><MEAN_ANOMALY>265.9722</MEAN_ANOMALY></meanElements><tleParameters><EPHEMERIS_TYPE>0</EPHEMERIS_TYPE><CLASSIFICATION_TYPE>U</CLASSIFICATION_TYPE><NORAD_CAT_ID>61595</NORAD_CAT_ID><ELEMENT_SET_NO>999</ELEMENT_SET_NO><REV_AT_EPOCH>223</REV_AT_EPOCH><BSTAR>.1945E-2</BSTAR><MEAN_MOTION_DOT>.1949E-3</MEAN_MOTION_DOT><MEAN_MOTION_DDOT>0</MEAN_MOTION_DDOT></tleParameters></data></segment></body></omm>
<omm id="CCSDS_OMM_VERS" version="2.0">
<header><CREATION_DATE/><ORIGINATOR/></header><body><segment><metadata><OBJECT_NAME>ONEWEB-0688</OBJECT_NAME><OBJECT_ID>2024-188C</OBJECT_ID><CENTER_NAME>EARTH</CENTER_NAME><REF_FRAME>TEME</REF_FRAME><TIME_SYSTEM>UTC</TIME_SYSTEM><MEAN_ELEMENT_THEORY>SGP4</MEAN_ELEMENT_THEORY></metadata><data><meanElements><EPOCH>2024-10-26T22:00:01.999584</EPOCH><MEAN_MOTION>14.91326987</MEAN_MOTION><ECCENTRICITY>.0003264</ECCENTRICITY><INCLINATION>86.5116</INCLINATION><RA_OF_ASC_NODE>167.7214</RA_OF_ASC_NODE><ARG_OF_PERICENTER>167.2839</ARG_OF_PERICENTER><MEAN_ANOMALY>266.6335</MEAN_ANOMALY></meanElements><tleParameters><EPHEMERIS_TYPE>0</EPHEMERIS_TYPE><CLASSIFICATION_TYPE>U</CLASSIFICATION_TYPE><NORAD_CAT_ID>61596</NORAD_CAT_ID><ELEMENT_SET_NO>999</ELEMENT_SET_NO><REV_AT_EPOCH>200</REV_AT_EPOCH><BSTAR>.19542E-2</BSTAR><MEAN_MOTION_DOT>.1953E-3</MEAN_MOTION_DOT><MEAN_MOTION_DDOT>0</MEAN_MOTION_DDOT></tleParameters></data></segment></body></omm>
<omm id="CCSDS_OMM_VERS" version="2.0">
<header><CREATION_DATE/><ORIGINATOR/></header><body><segment><metadata><OBJECT_NAME>ONEWEB-0689</OBJECT_NAME><OBJECT_ID>2024-188D</OBJECT_ID><CENTER_NAME>EARTH</CENTER_NAME><REF_FRAME>TEME</REF_FRAME><TIME_SYSTEM>UTC</TIME_SYSTEM><MEAN_ELEMENT_THEORY>SGP4</MEAN_ELEMENT_THEORY></metadata><data><meanElements><EPOCH>2024-10-26T22:00:01.999584</EPOCH><MEAN_MOTION>14.90977290</MEAN_MOTION><ECCENTRICITY>.0001733</ECCENTRICITY><INCLINATION>86.5099</INCLINATION><RA_OF_ASC_NODE>167.7215</RA_OF_ASC_NODE><ARG_OF_PERICENTER>151.2647</ARG_OF_PERICENTER><MEAN_ANOMALY>274.4320</MEAN_ANOMALY></meanElements><tleParameters><EPHEMERIS_TYPE>0</EPHEMERIS_TYPE><CLASSIFICATION_TYPE>U</CLASSIFICATION_TYPE><NORAD_CAT_ID>61597</NORAD_CAT_ID><ELEMENT_SET_NO>999</ELEMENT_SET_NO><REV_AT_EPOCH>207</REV_AT_EPOCH><BSTAR>.2163E-2</BSTAR><MEAN_MOTION_DOT>.21431E-3</MEAN_MOTION_DOT><MEAN_MOTION_DDOT>0</MEAN_MOTION_DDOT></tleParameters></data></segment></body></omm>
<omm id="CCSDS_OMM_VERS" version="2.0">
<header><CREATION_DATE/><ORIGINATOR/></header><body><segment><metadata><OBJECT_NAME>ONEWEB-0690</OBJECT_NAME><OBJECT_ID>2024-188E</OBJECT_ID><CENTER_NAME>EARTH</CENTER_NAME><REF_FRAME>TEME</REF_FRAME><TIME_SYSTEM>UTC</TIME_SYSTEM><MEAN_ELEMENT_THEORY>SGP4</MEAN_ELEMENT_THEORY></metadata><data><meanElements><EPOCH>2024-10-26T22:00:01.999584</EPOCH><MEAN_MOTION>14.91711655</MEAN_MOTION><ECCENTRICITY>.0004706</ECCENTRICITY><INCLINATION>86.5109</INCLINATION><RA_OF_ASC_NODE>167.7185</RA_OF_ASC_NODE><ARG_OF_PERICENTER>178.5684</ARG_OF_PERICENTER><MEAN_ANOMALY>264.5603</MEAN_ANOMALY></meanElements><tleParameters><EPHEMERIS_TYPE>0</EPHEMERIS_TYPE><CLASSIFICATION_TYPE>U</CLASSIFICATION_TYPE><NORAD_CAT_ID>61598</NORAD_CAT_ID><ELEMENT_SET_NO>999</ELEMENT_SET_NO><REV_AT_EPOCH>206</REV_AT_EPOCH><BSTAR>.19553E-2</BSTAR><MEAN_MOTION_DOT>.19733E-3</MEAN_MOTION_DOT><MEAN_MOTION_DDOT>0</MEAN_MOTION_DDOT></tleParameters></data></segment></body></omm>
<omm id="CCSDS_OMM_VERS" version="2.0">
<header><CREATION_DATE/><ORIGINATOR/></header><body><segment><metadata><OBJECT_NAME>ONEWEB-0691</OBJECT_NAME><OBJECT_ID>2024-188F</OBJECT_ID><CENTER_NAME>EARTH</CENTER_NAME><REF_FRAME>TEME</REF_FRAME><TIME_SYSTEM>UTC</TIME_SYSTEM><MEAN_ELEMENT_THEORY>SGP4</MEAN_ELEMENT_THEORY></metadata><data><meanElements><EPOCH>2024-10-27T04:00:00.999936</EPOCH><MEAN_MOTION>14.91598632</MEAN_MOTION><ECCENTRICITY>.000413</ECCENTRICITY><INCLINATION>86.5122</INCLINATION><RA_OF_ASC_NODE>167.6119</RA_OF_ASC_NODE><ARG_OF_PERICENTER>174.7895</ARG_OF_PERICENTER><MEAN_ANOMALY>166.3930</MEAN_ANOMALY></meanElements><tleParameters><EPHEMERIS_TYPE>0</EPHEMERIS_TYPE><CLASSIFICATION_TYPE>U</CLASSIFICATION_TYPE><NORAD_CAT_ID>61599</NORAD_CAT_ID><ELEMENT_SET_NO>999</ELEMENT_SET_NO><REV_AT_EPOCH>226</REV_AT_EPOCH><BSTAR>-.60847E-3</BSTAR><MEAN_MOTION_DOT>-.6062E-4</MEAN_MOTION_DOT><MEAN_MOTION_DDOT>0</MEAN_MOTION_DDOT></tleParameters></data></segment></body></omm>
<omm id="CCSDS_OMM_VERS" version="2.0">
<header><CREATION_DATE/><ORIGINATOR/></header><body><segment><metadata><OBJECT_NAME>ONEWEB-0692</OBJECT_NAME><OBJECT_ID>2024-188G</OBJECT_ID><CENTER_NAME>EARTH</CENTER_NAME><REF_FRAME>TEME</REF_FRAME><TIME_SYSTEM>UTC</TIME_SYSTEM><MEAN_ELEMENT_THEORY>SGP4</MEAN_ELEMENT_THEORY></metadata><data><meanElements><EPOCH>2024-10-26T22:00:01.999584</EPOCH><MEAN_MOTION>14.90739530</MEAN_MOTION><ECCENTRICITY>.0000654</ECCENTRICITY><INCLINATION>86.5135</INCLINATION><RA_OF_ASC_NODE>167.7254</RA_OF_ASC_NODE><ARG_OF_PERICENTER>146.6550</ARG_OF_PERICENTER><MEAN_ANOMALY>273.3984</MEAN_ANOMALY></meanElements><tleParameters><EPHEMERIS_TYPE>0</EPHEMERIS_TYPE><CLASSIFICATION_TYPE>U</CLASSIFICATION_TYPE><NORAD_CAT_ID>61600</NORAD_CAT_ID><ELEMENT_SET_NO>999</ELEMENT_SET_NO><REV_AT_EPOCH>216</REV_AT_EPOCH><BSTAR>.20363E-2</BSTAR><MEAN_MOTION_DOT>.20054E-3</MEAN_MOTION_DOT><MEAN_MOTION_DDOT>0</MEAN_MOTION_DDOT></tleParameters></data></segment></body></omm>
<omm id="CCSDS_OMM_VERS" version="2.0">
<header><CREATION_DATE/><ORIGINATOR/></header><body><segment><metadata><OBJECT_NAME>ONEWEB-0693</OBJECT_NAME><OBJECT_ID>2024-188H</OBJECT_ID><CENTER_NAME>EARTH</CENTER_NAME><REF_FRAME>TEME</REF_FRAME><TIME_SYSTEM>UTC</TIME_SYSTEM><MEAN_ELEMENT_THEORY>SGP4</MEAN_ELEMENT_THEORY></metadata><data><meanElements><EPOCH>2024-10-26T22:00:01.999584</EPOCH><MEAN_MOTION>14.90898387</MEAN_MOTION><ECCENTRICITY>.0001386</ECCENTRICITY><INCLINATION>86.5093</INCLINATION><RA_OF_ASC_NODE>167.7211</RA_OF_ASC_NODE><ARG_OF_PERICENTER>151.7505</ARG_OF_PERICENTER><MEAN_ANOMALY>272.0045</MEAN_ANOMALY></meanElements><tleParameters><EPHEMERIS_TYPE>0</EPHEMERIS_TYPE><CLASSIFICATION_TYPE>U</CLASSIFICATION_TYPE><NORAD_CAT_ID>61601</NORAD_CAT_ID><ELEMENT_SET_NO>999</ELEMENT_SET_NO><REV_AT_EPOCH>216</REV_AT_EPOCH><BSTAR>.20423E-2</BSTAR><MEAN_MOTION_DOT>.20193E-3</MEAN_MOTION_DOT><MEAN_MOTION_DDOT>0</MEAN_MOTION_DDOT></tleParameters></data></segment></body></omm>
<omm id="CCSDS_OMM_VERS" version="2.0">
<header><CREATION_DATE/><ORIGINATOR/></header><body><segment><metadata><OBJECT_NAME>ONEWEB-0695</OBJECT_NAME><OBJECT_ID>2024-188J</OBJECT_ID><CENTER_NAME>EARTH</CENTER_NAME><REF_FRAME>TEME</REF_FRAME><TIME_SYSTEM>UTC</TIME_SYSTEM><MEAN_ELEMENT_THEORY>SGP4</MEAN_ELEMENT_THEORY></metadata><data><meanElements><EPOCH>2024-10-26T22:00:01.999584</EPOCH><MEAN_MOTION>14.90866761</MEAN_MOTION><ECCENTRICITY>.0001209</ECCENTRICITY><INCLINATION>86.5138</INCLINATION><RA_OF_ASC_NODE>167.7255</RA_OF_ASC_NODE><ARG_OF_PERICENTER>150.5555</ARG_OF_PERICENTER><MEAN_ANOMALY>272.4672</MEAN_ANOMALY></meanElements><tleParameters><EPHEMERIS_TYPE>0</EPHEMERIS_TYPE><CLASSIFICATION_TYPE>U</CLASSIFICATION_TYPE><NORAD_CAT_ID>61602</NORAD_CAT_ID><ELEMENT_SET_NO>999</ELEMENT_SET_NO><REV_AT_EPOCH>219</REV_AT_EPOCH><BSTAR>.20805E-2</BSTAR><MEAN_MOTION_DOT>.20555E-3</MEAN_MOTION_DOT><MEAN_MOTION_DDOT>0</MEAN_MOTION_DDOT></tleParameters></data></segment></body></omm>

</ndm>
