ONEWEB-0687             
1 61595U 24188B   24300.91668981  .00019490  00000+0  19450-2 0  9999
2 61595  86.5104 167.7175 0003770 170.6454 265.9722 14.91431705  2235
ONEWEB-0688             
1 61596U 24188C   24300.91668981  .00019530  00000+0  19542-2 0  9997
2 61596  86.5116 167.7214 0003264 167.2839 266.6335 14.91326987  2008
ONEWEB-0689             
1 61597U 24188D   24300.91668981  .00021431  00000+0  21630-2 0  9992
2 61597  86.5099 167.7215 0001733 151.2647 274.4320 14.90977290  2075
ONEWEB-0690             
1 61598U 24188E   24300.91668981  .00019733  00000+0  19553-2 0  9996
2 61598  86.5109 167.7185 0004706 178.5684 264.5603 14.91711655  2065
ONEWEB-0691             
1 61599U 24188F   24301.16667824 -.00006062  00000+0 -60847-3 0  9996
2 61599  86.5122 167.6119 0004130 174.7895 166.3930 14.91598632  2262
ONEWEB-0692             
1 61600U 24188G   24300.91668981  .00020054  00000+0  20363-2 0  9999
2 61600  86.5135 167.7254 0000654 146.6550 273.3984 14.90739530  2163
ONEWEB-0693             
1 61601U 24188H   24300.91668981  .00020193  00000+0  20423-2 0  9991
2 61601  86.5093 167.7211 0001386 151.7505 272.0045 14.90898387  2160
ONEWEB-0695             
1 61602U 24188J   24300.91668981  .00020555  00000+0  20805-2 0  9998
2 61602  86.5138 167.7255 0001209 150.5555 272.4672 14.90866761  2199
